OBJECT_NAME,OBJECT_ID,EPOCH,MEAN_MOTION,ECCENTRICITY,INCLINATION,RA_OF_ASC_NODE,ARG_OF_PERICENTER,MEAN_ANOMALY,EPHEMERIS_TYPE,CLASSIFICATION_TYPE,NORAD_CAT_ID,ELEMENT_SET_NO,REV_AT_EPOCH,BSTAR,MEAN_MOTION_DOT,MEAN_MOTION_DDOT
FENGYUN 3D,2017-072A,2026-07-14T21:56:41.745984,14.19744763,.00015261,99.0137,170.8401,14.5399,345.5820,0,U,43010,999,44892,.66831957E-4,.95E-6,0
NOAA 20 (JPSS-1),2017-073A,2026-07-14T21:56:00.378528,14.19516415,.00013765,98.7772,135.1308,125.0493,235.0812,0,U,43013,999,44840,.24774409E-4,.8E-7,0
GOES 17,2018-022A,2026-07-14T19:50:08.246112,1.00271097,.00005362,1.0058,85.2620,82.3130,333.1466,0,U,43226,999,3070,0,-.192E-5,0
SENTINEL-3B,2018-039A,2026-07-14T19:42:03.001248,14.26736193,.00011351,98.6236,262.9549,119.3796,240.7498,0,U,43437,999,42806,.31776681E-4,.33E-6,0
FENGYUN 2H,2018-050A,2026-07-14T18:55:35.973984,1.00267176,.00023073,3.0993,78.7420,134.0717,82.8696,0,U,43491,999,2971,0,-.137E-5,0
METOP-C,2018-087A,2026-07-14T20:54:14.352480,14.21518967,.00022205,98.6631,254.9666,94.1956,265.9475,0,U,43689,999,39876,.37474438E-4,.39E-6,0
GEO-KOMPSAT-2A,2018-100A,2026-07-14T17:27:00.252000,1.00269956,.00019612,0.0287,108.8702,352.7689,220.9550,0,U,43823,999,2790,0,-.352E-5,0
METEOR-M2 2,2019-038A,2026-07-14T23:48:14.456736,14.24372524,.00007561,98.9152,183.6894,3.0534,357.0649,0,U,44387,999,36525,-.45726809E-4,-.152E-5,0
ARKTIKA-M 1,2021-016A,2026-07-14T09:46:38.558208,2.00611590,.7297332,63.2662,53.6722,270.0591,14.4994,0,U,47719,999,3933,0,-.301E-5,0
FENGYUN 3E,2021-062A,2026-07-14T23:10:31.653696,14.19906111,.00022572,98.7495,199.0642,39.6218,320.5123,0,U,49008,999,26052,-.70119042E-4,-.193E-5,0
GOES 18,2022-021A,2026-07-14T17:53:57.667776,1.00270740,.00003988,0.0191,127.3347,62.6101,234.1429,0,U,51850,999,686,0,.88E-6,0
NOAA 21 (JPSS-2),2022-150A,2026-07-14T21:01:01.377696,14.19540991,.0002825,98.7060,134.1999,105.1319,255.0170,0,U,54234,999,19047,.19787515E-4,-.2E-7,0
METEOSAT-12 (MTG-I1),2022-170C,2026-07-14T18:32:54.583008,1.00267589,.00037942,0.7248,19.6446,82.1207,108.7756,0,U,54743,999,1325,0,-.17E-6,0
TIANMU-1 03,2023-039A,2026-07-14T23:32:59.974080,15.48038886,.00025954,97.5236,11.0558,27.7644,332.3745,0,U,55973,999,18513,.16719867E-3,.8653E-4,0
TIANMU-1 04,2023-039B,2026-07-14T23:02:03.357312,15.48664985,.00030573,97.5174,10.1894,13.8573,346.2761,0,U,55974,999,18514,.18111034E-3,.959E-4,0
TIANMU-1 05,2023-039C,2026-07-14T23:07:16.012128,15.47963659,.00029838,97.5219,10.6417,46.2828,313.8669,0,U,55975,999,18511,.17350248E-3,.896E-4,0
TIANMU-1 06,2023-039D,2026-07-14T23:09:29.926944,15.48561599,.00030821,97.5227,11.3073,37.6968,322.4498,0,U,55976,999,18514,.17478919E-3,.9218E-4,0
FENGYUN 3G,2023-055A,2026-07-14T21:33:33.640128,15.53778159,.00070551,49.9902,203.1070,54.5051,305.6573,0,U,56232,999,18431,.23297151E-3,.14815E-3,0
METEOR-M2 3,2023-091A,2026-07-14T23:49:18.784992,14.24048897,.00051483,98.6068,250.3998,90.7221,269.4548,0,U,57166,999,15847,.13445009E-4,-.12E-6,0
TIANMU-1 07,2023-101A,2026-07-14T23:05:08.420928,15.30114070,.00037756,97.2578,245.9954,65.2766,294.8868,0,U,57399,999,16589,.12528848E-3,.3577E-4,0
TIANMU-1 08,2023-101B,2026-07-14T22:16:59.859840,15.30117438,.00046438,97.2566,245.7293,46.9658,313.1971,0,U,57400,999,16588,.1227682E-3,.3504E-4,0
TIANMU-1 09,2023-101C,2026-07-14T23:26:21.215616,15.30159052,.00043718,97.2524,245.1780,65.3095,294.8601,0,U,57401,999,16589,.12996018E-3,.3719E-4,0
TIANMU-1 10,2023-101D,2026-07-14T22:40:28.720704,15.30132091,.00056797,97.2604,246.2257,54.9532,305.2241,0,U,57402,999,16588,.13010683E-3,.372E-4,0
FENGYUN 3F,2023-111A,2026-07-14T21:04:56.161920,14.19943340,.00012851,98.6825,265.3696,76.2700,283.8619,0,U,57490,999,15279,.23112292E-4,.6E-7,0
ARKTIKA-M 2,2023-198A,2026-07-14T04:16:23.945088,2.00608202,.6910425,63.2180,151.3455,267.3421,18.7368,0,U,58584,999,1886,0,.133E-5,0
TIANMU-1 11,2023-205A,2026-07-14T23:12:14.772960,15.27262484,.0006778,97.3440,217.0916,263.0906,96.9562,0,U,58645,999,14176,.11338199E-3,.2956E-4,0
TIANMU-1 12,2023-205B,2026-07-14T22:32:27.917664,15.27093994,.00057778,97.3429,216.8115,235.7640,124.3052,0,U,58646,999,14174,.11972402E-3,.3109E-4,0
TIANMU-1 13,2023-205C,2026-07-14T23:20:37.199328,15.27086757,.00057716,97.3456,217.1243,213.2096,146.8781,0,U,58647,999,14174,.11907221E-3,.3091E-4,0
TIANMU-1 14,2023-205D,2026-07-14T22:58:09.310080,15.27130755,.00064051,97.3393,216.2691,221.1364,138.9393,0,U,58648,999,14174,.11974075E-3,.3114E-4,0
TIANMU-1 19,2023-208A,2026-07-14T22:04:21.317088,15.31972976,.00045679,97.4529,312.3716,199.3765,160.7304,0,U,58660,999,14157,.15121543E-3,.4589E-4,0
