FENGYUN 3D              
1 43010U 17072A   26195.91437206  .00000095  00000+0  66832-4 0  9992
2 43010  99.0137 170.8401 0001526  14.5399 345.5820 14.19744763448925
NOAA 20 (JPSS-1)        
1 43013U 17073A   26195.91389327  .00000008  00000+0  24774-4 0  9999
2 43013  98.7772 135.1308 0001376 125.0493 235.0812 14.19516415448403
GOES 17                 
1 43226U 18022A   26195.82648433 -.00000192  00000+0  00000+0 0  9992
2 43226   1.0058  85.2620 0000536  82.3130 333.1466  1.00271097 30700
SENTINEL-3B             
1 43437U 18039A   26195.82086807  .00000033  00000+0  31777-4 0  9998
2 43437  98.6236 262.9549 0001135 119.3796 240.7498 14.26736193428066
FENGYUN 2H              
1 43491U 18050A   26195.78861081 -.00000137  00000+0  00000+0 0  9997
2 43491   3.0993  78.7420 0002307 134.0717  82.8696  1.00267176 29718
METOP-C                 
1 43689U 18087A   26195.87099945  .00000039  00000+0  37474-4 0  9998
2 43689  98.6631 254.9666 0002220  94.1956 265.9475 14.21518967398768
GEO-KOMPSAT-2A          
1 43823U 18100A   26195.72708625 -.00000352  00000+0  00000+0 0  9999
2 43823   0.0287 108.8702 0001961 352.7689 220.9550  1.00269956 27901
METEOR-M2 2             
1 44387U 19038A   26195.99183399 -.00000152  00000+0 -45727-4 0  9999
2 44387  98.9152 183.6894 0000756   3.0534 357.0649 14.24372524365253
ARKTIKA-M 1             
1 47719U 21016A   26195.40739072 -.00000301  00000+0  00000+0 0  9996
2 47719  63.2662  53.6722 7297332 270.0591  14.4994  2.00611590 39330
FENGYUN 3E              
1 49008U 21062A   26195.96564414 -.00000193  00000+0 -70119-4 0  9990
2 49008  98.7495 199.0642 0002257  39.6218 320.5123 14.19906111260525
GOES 18                 
1 51850U 22021A   26195.74580634  .00000088  00000+0  00000+0 0  9990
2 51850   0.0191 127.3347 0000398  62.6101 234.1429  1.00270740  6861
NOAA 21 (JPSS-2)        
1 54234U 22150A   26195.87571039 -.00000002  00000+0  19788-4 0  9990
2 54234  98.7060 134.1999 0002825 105.1319 255.0170 14.19540991190477
METEOSAT-12 (MTG-I1)    
1 54743U 22170C   26195.77285397 -.00000017  00000+0  00000+0 0  9993
2 54743   0.7248  19.6446 0003794  82.1207 108.7756  1.00267589 13252
TIANMU-1 03             
1 55973U 23039A   26195.98124970  .00008653  00000+0  16720-3 0  9999
2 55973  97.5236  11.0558 0002595  27.7644 332.3745 15.48038886185130
TIANMU-1 04             
1 55974U 23039B   26195.95976108  .00009590  00000+0  18111-3 0  9992
2 55974  97.5174  10.1894 0003057  13.8573 346.2761 15.48664985185144
TIANMU-1 05             
1 55975U 23039C   26195.96337977  .00008960  00000+0  17350-3 0  9993
2 55975  97.5219  10.6417 0002983  46.2828 313.8669 15.47963659185114
TIANMU-1 06             
1 55976U 23039D   26195.96492971  .00009218  00000+0  17479-3 0  9999
2 55976  97.5227  11.3073 0003082  37.6968 322.4498 15.48561599185147
FENGYUN 3G              
1 56232U 23055A   26195.89830602  .00014815  00000+0  23297-3 0  9996
2 56232  49.9902 203.1070 0007055  54.5051 305.6573 15.53778159184310
METEOR-M2 3             
1 57166U 23091A   26195.99257853 -.00000012  00000+0  13445-4 0  9995
2 57166  98.6068 250.3998 0005148  90.7221 269.4548 14.24048897158479
TIANMU-1 07             
1 57399U 23101A   26195.96190302  .00003577  00000+0  12529-3 0  9996
2 57399  97.2578 245.9954 0003775  65.2766 294.8868 15.30114070165891
TIANMU-1 08             
1 57400U 23101B   26195.92847060  .00003504  00000+0  12277-3 0  9995
2 57400  97.2566 245.7293 0004643  46.9658 313.1971 15.30117438165886
TIANMU-1 09             
1 57401U 23101C   26195.97663444  .00003719  00000+0  12996-3 0  9999
2 57401  97.2524 245.1780 0004371  65.3095 294.8601 15.30159052165898
TIANMU-1 10             
1 57402U 23101D   26195.94477686  .00003720  00000+0  13011-3 0  9999
2 57402  97.2604 246.2257 0005679  54.9532 305.2241 15.30132091165881
FENGYUN 3F              
1 57490U 23111A   26195.87842780  .00000006  00000+0  23112-4 0  9998
2 57490  98.6825 265.3696 0001285  76.2700 283.8619 14.19943340152799
ARKTIKA-M 2             
1 58584U 23198A   26195.17805492  .00000133  00000+0  00000+0 0  9997
2 58584  63.2180 151.3455 6910425 267.3421  18.7368  2.00608202 18864
TIANMU-1 11             
1 58645U 23205A   26195.96683765  .00002956  00000+0  11338-3 0  9993
2 58645  97.3440 217.0916 0006778 263.0906  96.9562 15.27262484141764
TIANMU-1 12             
1 58646U 23205B   26195.93921201  .00003109  00000+0  11972-3 0  9996
2 58646  97.3429 216.8115 0005777 235.7640 124.3052 15.27093994141745
TIANMU-1 13             
1 58647U 23205C   26195.97265277  .00003091  00000+0  11907-3 0  9993
2 58647  97.3456 217.1243 0005771 213.2096 146.8781 15.27086757141749
TIANMU-1 14             
1 58648U 23205D   26195.95705220  .00003114  00000+0  11974-3 0  9999
2 58648  97.3393 216.2691 0006405 221.1364 138.9393 15.27130755141747
TIANMU-1 19             
1 58660U 23208A   26195.91969117  .00004589  00000+0  15122-3 0  9995
2 58660  97.4529 312.3716 0004567 199.3765 160.7304 15.31972976141577
